ONEWEB-0116             
1 48046U 21025E   24280.41336651 -.00000204  00000+0 -59301-3 0  9995
2 48046  87.8865  83.3072 0001628  97.8518 262.2796 13.13471984172425
ONEWEB-0150             
1 48047U 21025F   24280.84505156  .00000205  00000+0  52689-3 0  9992
2 48047  87.8860  83.2336 0001484  85.7562 274.3736 13.13469452172377
ONEWEB-0107             
1 48048U 21025G   24280.84662135  .00000112  00000+0  27047-3 0  9991
2 48048  87.8859  83.2311 0001713  77.5277 282.6044 13.13474708172358
ONEWEB-0101             
1 48049U 21025H   24280.88631797  .00000050  00000+0  10224-3 0  9996
2 48049  87.8864  83.2459 0001697  90.3951 269.7372 13.13470379172339
ONEWEB-0113             
1 48050U 21025J   24280.48319629 -.00000154  00000+0 -45699-3 0  9992
2 48050  87.8862  83.3073 0001642  96.7559 263.3757 13.13470378172365
ONEWEB-0112             
1 48051U 21025K   24280.85139815  .00000022  00000+0  25931-4 0  9991
2 48051  87.8859  83.2274 0001541  91.6450 268.4855 13.13470024172426
ONEWEB-0156             
1 48052U 21025L   24280.86092527 -.00000207  00000+0 -60240-3 0  9999
2 48052  87.8860  83.2268 0001562  89.7569 270.3739 13.13470130172403
ONEWEB-0161             
1 48053U 21025M   24280.75776494  .00000475  00000+0  12652-2 0  9998
2 48053  87.8864  83.2578 0001706  86.2032 273.9292 13.13471183172322
